{
  "norad_id": 53761,
  "name": "YAOGAN-35 05B",
  "history": [
    {
      "epoch": "2026-03-28T17:57:42.162624Z",
      "apogee_km": 464.4021071926827,
      "perigee_km": 454.9674174814445,
      "latitude_deg": 3.513226333566969e-05,
      "longitude_deg": 10.652475175108506,
      "height_km": 463.2270406050902,
      "semi_major_axis_km": 6837.821762337063,
      "eccentricity": 0.00068989,
      "inclination_deg": 34.9786,
      "raan_deg": 106.2425,
      "arg_perigee_deg": 169.9953,
      "mean_anomaly_deg": 190.0904,
      "mean_motion_rev_day": 15.35416127
    },
    {
      "epoch": "2026-03-29T04:53:06.198144Z",
      "apogee_km": 464.38463443699675,
      "perigee_km": 454.8719353726365,
      "latitude_deg": -1.826970220108606e-05,
      "longitude_deg": -156.56425448805078,
      "height_km": 463.25571997702406,
      "semi_major_axis_km": 6837.765284904816,
      "eccentricity": 0.0006956,
      "inclination_deg": 34.9786,
      "raan_deg": 103.3246,
      "arg_perigee_deg": 174.0032,
      "mean_anomaly_deg": 186.077,
      "mean_motion_rev_day": 15.3543515
    }
  ]
}